{
  "type": "FeatureCollection",
  "features": [
    {
      "type": "Feature",
      "properties": {
        "norad_id": 41866,
        "name": "GOES 16",
        "group": "weather",
        "lat": 0.05462294210461487,
        "lon": 129.86328456524927,
        "alt_km": 35795.24531361044,
        "timestamp": "2025-12-21T09:37:22.291224+00:00",
        "meta_object_name": "GOES 16",
        "meta_object_id": "2016-071A",
        "meta_epoch": "2025-12-21T02:25:41.042208",
        "meta_mean_motion": 1.00272095,
        "meta_eccentricity": 0.0003024,
        "meta_inclination": 0.0759,
        "meta_ra_of_asc_node": 101.8423,
        "meta_arg_of_pericenter": 164.1989,
        "meta_mean_anomaly": 115.6369,
        "meta_ephemeris_type": 0,
        "meta_classification_type": "U",
        "meta_norad_cat_id": 41866,
        "meta_element_set_no": 999,
        "meta_rev_at_epoch": 3331,
        "meta_bstar": 0,
        "meta_mean_motion_dot": -6.8e-07,
        "meta_mean_motion_ddot": 0,
        "tle_line1": "1 41866U 16071A   25355.10116947 -.00000068  00000+0  00000+0 0  9992",
        "tle_line2": "2 41866   0.0759 101.8423 0003024 164.1989 115.6369  1.00272095 33311"
      },
      "geometry": {
        "type": "Point",
        "coordinates": [
          129.86328456524927,
          0.05462294210461487
        ]
      }
    },
    {
      "type": "Feature",
      "properties": {
        "norad_id": 41882,
        "name": "FENGYUN 4A",
        "group": "weather",
        "lat": -1.863029876768626,
        "lon": -1.6899632329197916,
        "alt_km": 35800.95719897931,
        "timestamp": "2025-12-21T09:37:22.291237+00:00",
        "meta_object_name": "FENGYUN 4A",
        "meta_object_id": "2016-077A",
        "meta_epoch": "2025-12-19T13:51:06.687072",
        "meta_mean_motion": 1.00266581,
        "meta_eccentricity": 0.0004506,
        "meta_inclination": 1.866,
        "meta_ra_of_asc_node": 82.3247,
        "meta_arg_of_pericenter": 142.8816,
        "meta_mean_anomaly": 194.7423,
        "meta_ephemeris_type": 0,
        "meta_classification_type": "U",
        "meta_norad_cat_id": 41882,
        "meta_element_set_no": 999,
        "meta_rev_at_epoch": 3312,
        "meta_bstar": 0,
        "meta_mean_motion_dot": -3.34e-06,
        "meta_mean_motion_ddot": 0,
        "tle_line1": "1 41882U 16077A   25353.57716073 -.00000334  00000+0  00000+0 0  9997",
        "tle_line2": "2 41882   1.8660  82.3247 0004506 142.8816 194.7423  1.00266581 33125"
      },
      "geometry": {
        "type": "Point",
        "coordinates": [
          -1.6899632329197916,
          -1.863029876768626
        ]
      }
    },
    {
      "type": "Feature",
      "properties": {
        "norad_id": 41884,
        "name": "CYGFM05",
        "group": "weather",
        "lat": 33.68380705082062,
        "lon": 97.99659557612061,
        "alt_km": 423.18147687884175,
        "timestamp": "2025-12-21T09:37:22.291248+00:00",
        "meta_object_name": "CYGFM05",
        "meta_object_id": "2016-078A",
        "meta_epoch": "2025-12-21T02:58:55.174080",
        "meta_mean_motion": 15.47924637,
        "meta_eccentricity": 0.001082,
        "meta_inclination": 34.9605,
        "meta_ra_of_asc_node": 352.3496,
        "meta_arg_of_pericenter": 256.6713,
        "meta_mean_anomaly": 103.2802,
        "meta_ephemeris_type": 0,
        "meta_classification_type": "U",
        "meta_norad_cat_id": 41884,
        "meta_element_set_no": 999,
        "meta_rev_at_epoch": 50106,
        "meta_bstar": 0.00026405,
        "meta_mean_motion_dot": 0.00014198,
        "meta_mean_motion_ddot": 0,
        "tle_line1": "1 41884U 16078A   25355.12424970  .00014198  00000+0  26405-3 0  9998",
        "tle_line2": "2 41884  34.9605 352.3496 0010820 256.6713 103.2802 15.47924637501063"
      },
      "geometry": {
        "type": "Point",
        "coordinates": [
          97.99659557612061,
          33.68380705082062
        ]
      }
    },
    {
      "type": "Feature",
      "properties": {
        "norad_id": 41885,
        "name": "CYGFM04",
        "group": "weather",
        "lat": 32.502793988868454,
        "lon": 30.955839351291335,
        "alt_km": 414.05433251538125,
        "timestamp": "2025-12-21T09:37:22.291259+00:00",
        "meta_object_name": "CYGFM04",
        "meta_object_id": "2016-078B",
        "meta_epoch": "2025-12-21T04:41:16.277856",
        "meta_mean_motion": 15.50692603,
        "meta_eccentricity": 0.0009662,
        "meta_inclination": 34.9356,
        "meta_ra_of_asc_node": 326.4158,
        "meta_arg_of_pericenter": 281.9389,
        "meta_mean_anomaly": 78.025,
        "meta_ephemeris_type": 0,
        "meta_classification_type": "U",
        "meta_norad_cat_id": 41885,
        "meta_element_set_no": 999,
        "meta_rev_at_epoch": 50125,
        "meta_bstar": 0.00028538,
        "meta_mean_motion_dot": 0.00016929,
        "meta_mean_motion_ddot": 0,
        "tle_line1": "1 41885U 16078B   25355.19532729  .00016929  00000+0  28538-3 0  9991",
        "tle_line2": "2 41885  34.9356 326.4158 0009662 281.9389  78.0250 15.50692603501252"
      },
      "geometry": {
        "type": "Point",
        "coordinates": [
          30.955839351291335,
          32.502793988868454
        ]
      }
    },
    {
      "type": "Feature",
      "properties": {
        "norad_id": 41886,
        "name": "CYGFM02",
        "group": "weather",
        "lat": 27.439220308131052,
        "lon": 95.2409270546633,
        "alt_km": 412.48774697789577,
        "timestamp": "2025-12-21T09:37:22.291269+00:00",
        "meta_object_name": "CYGFM02",
        "meta_object_id": "2016-078C",
        "meta_epoch": "2025-12-21T02:54:21.140064",
        "meta_mean_motion": 15.5209398,
        "meta_eccentricity": 0.0011344,
        "meta_inclination": 34.9445,
        "meta_ra_of_asc_node": 325.1195,
        "meta_arg_of_pericenter": 281.9846,
        "meta_mean_anomaly": 77.9605,
        "meta_ephemeris_type": 0,
        "meta_classification_type": "U",
        "meta_norad_cat_id": 41886,
        "meta_element_set_no": 999,
        "meta_rev_at_epoch": 50137,
        "meta_bstar": 0.00028818,
        "meta_mean_motion_dot": 0.00017995,
        "meta_mean_motion_ddot": 0,
        "tle_line1": "1 41886U 16078C   25355.12107801  .00017995  00000+0  28818-3 0  9999",
        "tle_line2": "2 41886  34.9445 325.1195 0011344 281.9846  77.9605 15.52093980501377"
      },
      "geometry": {
        "type": "Point",
        "coordinates": [
          95.2409270546633,
          27.439220308131052
        ]
      }
    },
    {
      "type": "Feature",
      "properties": {
        "norad_id": 41887,
        "name": "CYGFM01",
        "group": "weather",
        "lat": 7.4085250223879955,
        "lon": 162.09699877531887,
        "alt_km": 418.2612420154419,
        "timestamp": "2025-12-21T09:37:22.291280+00:00",
        "meta_object_name": "CYGFM01",
        "meta_object_id": "2016-078D",
        "meta_epoch": "2025-12-21T02:42:56.693088",
        "meta_mean_motion": 15.48512535,
        "meta_eccentricity": 0.0010536,
        "meta_inclination": 34.9438,
        "meta_ra_of_asc_node": 354.7121,
        "meta_arg_of_pericenter": 248.9605,
        "meta_mean_anomaly": 110.999,
        "meta_ephemeris_type": 0,
        "meta_classification_type": "U",
        "meta_norad_cat_id": 41887,
        "meta_element_set_no": 999,
        "meta_rev_at_epoch": 50100,
        "meta_bstar": 0.00027007,
        "meta_mean_motion_dot": 0.00014827,
        "meta_mean_motion_ddot": 0,
        "tle_line1": "1 41887U 16078D   25355.11315617  .00014827  00000+0  27007-3 0  9995",
        "tle_line2": "2 41887  34.9438 354.7121 0010536 248.9605 110.9990 15.48512535501007"
      },
      "geometry": {
        "type": "Point",
        "coordinates": [
          162.09699877531887,
          7.4085250223879955
        ]
      }
    },
    {
      "type": "Feature",
      "properties": {
        "norad_id": 41888,
        "name": "CYGFM08",
        "group": "weather",
        "lat": -33.290357309717116,
        "lon": -134.17761221176985,
        "alt_km": 411.8930112223452,
        "timestamp": "2025-12-21T09:37:22.291292+00:00",
        "meta_object_name": "CYGFM08",
        "meta_object_id": "2016-078E",
        "meta_epoch": "2025-12-21T03:53:45.008736",
        "meta_mean_motion": 15.49741243,
        "meta_eccentricity": 0.001195,
        "meta_inclination": 34.9467,
        "meta_ra_of_asc_node": 337.2835,
        "meta_arg_of_pericenter": 272.0928,
        "meta_mean_anomaly": 87.8426,
        "meta_ephemeris_type": 0,
        "meta_classification_type": "U",
        "meta_norad_cat_id": 41888,
        "meta_element_set_no": 999,
        "meta_rev_at_epoch": 50124,
        "meta_bstar": 0.00028214,
        "meta_mean_motion_dot": 0.00016193,
        "meta_mean_motion_ddot": 0,
        "tle_line1": "1 41888U 16078E   25355.16232649  .00016193  00000+0  28214-3 0  9993",
        "tle_line2": "2 41888  34.9467 337.2835 0011950 272.0928  87.8426 15.49741243501248"
      },
      "geometry": {
        "type": "Point",
        "coordinates": [
          -134.17761221176985,
          -33.290357309717116
        ]
      }
    }
  ]
}